label,left_addressCountry,left_addressLocality,left_postalCode,left_streetAddress,right_addressCountry,right_addressLocality,right_postalCode,right_streetAddress
,AT,Baden,1873,Barbara-Mitterlehner-Gasse 123,AT,Mattersburg,3850,
,AT,Wilhelmsburg,9737,Aichingerweg 17,EE,North Aivarstad,78822,
,AT,Landeck,2308,Fitzstraße 14,EE,South Kristi,80489,
,NL,Blesdijke,7031 CH,Carlijnsteeg 86,AT,Retz,6077,
,NL,Echteld,6042 AC,Berendpad 16,AT,Grieskirchen,9040,
,AT,Jennersdorf,4114,Nikola-Schwab-Ring 3,AT,Amstetten,8952,
,AT,Mariazell,5414,Matilda-Scherzer-Gasse 129,AT,Mattersburg,3850,
,AT,Mariazell,5414,Matilda-Scherzer-Gasse 129,AT,Pregarten,5773,
,NL,Tienray,9511 QK,Evelienpad 133,AT,Dürnstein,1474,
,AT,Althofen,6456,Pachlergasse 7,AT,Sankt Pölten,2851,
,NL,Oldenzijl,4196 EO,Felixstraat 76,NL,Dreischor,3354 WO,
,AT,Gmunden,9449,Aignergasse 94,NL,Helvoirt,9135 MC,
,AT,Bregenz,4948,Haslauerplatz 84,NL,IJsselham,7370 DH,
,NL,Reeuwijk,9251 OB,Jurrering 133,EE,Lake Dianastad,99041,
,AT,Mautern an der Donau,4451,Draxlergasse 17,EE,North Natalja,19732,
,NL,Ewijk,3850 RP,Lukahof 42,EE,East Nikolai,80378,
,AT,Freistadt,1267,Buchbergerring 81,EE,Lake Dianastad,99041,
,AT,Raabs an der Thaya,9317,Scharfstr. 101,NL,Hidaard,1008 JC,
,AT,Krems an der Donau,6060,Foidlstr. 65,EE,South Jüri,41096,
,EE,Tuulikstad,28046,Novikov Place 120,EE,East Juri,74582,
,EE,Gontšarovburgh,53738,Tiina Brooks 18,EE,East Sander,51250,
,AT,Bärnbach,1478,Schiestlweg 58,AT,Hainburg an der Donau,5910,
,AT,Enns,2160,Alara-Reif-Weg 88,NL,Boerakker,1371 WB,
,AT,Mistelbach an der Zaya,1305,Adamweg 34,AT,Rottenmann,4988,
,NL,Slijkenburg,9504 AE,Joëlboulevard 47,NL,Zevenhoven,4578 MH,
,EE,Remmelview,87595,Nurk Forges 31,AT,Schrems,6626,
,AT,Enns,2160,Alara-Reif-Weg 88,NL,Slijkenburg,9504 AE,
,NL,Helvoirt,9135 MC,Beratbaan 11,NL,Hierden,5852 XF,
,NL,Meterik,9641 EG,Timpad 65,NL,Reeuwijk,9251 OB,
,NL,Slijkenburg,9504 AE,Joëlboulevard 47,AT,Mattersburg,3850,
,AT,Gänserndorf,8049,Nikolai-Scheucher-Ring 93,NL,Broekhuizenvorst,6061 BU,
,NL,Hoofddorp,5788 LP,Saarsteeg 12,AT,Schrems,6626,
,NL,Westerbroek,8337 QD,Fennasteeg 133,EE,New Jelena,89190,
,AT,Mattersburg,3850,Jasmine-Puntigam-Platz 74,EE,Reimanntown,75020,
,AT,Krems an der Donau,6060,Foidlstr. 65,AT,Waidhofen an der Thaya,5432,
,EE,New Viktoria,59270,Marek Fords 19,EE,New Jelena,89190,
,NL,Kerkrade,2575 PB,Lilysingel 63,AT,Marchtrenk,7718,
,EE,Eveshire,98391,Tamara Trafficway 105,NL,Venhorst,1059 KC,
,EE,East Sergey,30532,Tarmo Lake 92,AT,Frohnleiten,6578,
,AT,Retz,6077,Steinlechnerring 79,AT,Enns,2160,
,AT,Enns,2160,Alara-Reif-Weg 88,EE,New Valentina,32408,
,EE,South Jaanuschester,93376,Ossipov Crossroad 139,NL,Kuitaart,8918 NH,
,EE,Annaview,92404,Nadežda Spring 67,AT,Ybbs an der Donau,8336,
,AT,Schrattenthal,5869,Elisabeth-Rössler-Ring 94,EE,New Viktoria,59270,
,AT,Villach,2107,Verena-Riedmann-Straße 92,EE,Anneshire,31221,
,EE,Viktormouth,49275,Kiil Parks 137,AT,Radenthein,3684,
,AT,Villach,2107,Verena-Riedmann-Straße 92,NL,Haren Gn,2740 RV,
,AT,Kufstein,2617,Dana-Edlinger-Straße 95,AT,Bregenz,4948,
,NL,IJsselham,7370 DH,Merelhof 1,EE,Vainmouth,72093,
,AT,Frohnleiten,1017,Juliana-Kössler-Ring 18,AT,Zwettl,9873,
,EE,South Jaanuschester,93376,Ossipov Crossroad 139,EE,North Romanfurt,31917,
,NL,Stiens,8173 CV,Lindseyhof 123,AT,Jennersdorf,4114,
,AT,Rottenmann,2285,Madeleine-Teufl-Ring 6,EE,Põderberg,78693,
,EE,South Kristi,80489,Galina Villages 104,NL,Lobith,5348 TT,
,NL,Broekhuizenvorst,6061 BU,Milanlaan 109,AT,Landeck,2308,
,AT,Hainfeld,7929,Zettlplatz 114,AT,Purkersdorf,1916,
,AT,Ternitz,4294,Justin-Gross-Straße 126,AT,Sankt Pölten,2851,
,EE,South Meelis,74495,Aleksandr Pines 41,AT,Wolfsberg,8575,
,AT,Bregenz,4948,Haslauerplatz 84,AT,Purkersdorf,1916,
,AT,Innsbruck,2915,Leopold-Krainer-Platz 29,AT,Bischofshofen,8418,
,AT,Zwettl,9873,Jessica-Bachmann-Straße 83,EE,East Anneburgh,58498,
,AT,Waidhofen an der Ybbs,2963,Steinkellnergasse 54,AT,Rottenmann,6888,
,NL,Egmond-Binnen,6400 YE,Gerritring 67,EE,Reetbury,64161,
,AT,Rottenmann,2285,Madeleine-Teufl-Ring 6,NL,Angeren,9800 AU,
,NL,Westerbroek,8337 QD,Fennasteeg 133,EE,Jaanusborough,52268,
,NL,Zevenhoven,4578 MH,Jasmijnweg 8,EE,New Viktoria,59270,
,AT,Oberndorf bei Salzburg,2976,Franz-Marx-Straße 1,NL,Tonden,6650 HE,
,EE,Viktoriashire,33402,Tamme Port 139,EE,Lake Dianastad,99041,
,EE,South Marina,83491,Kuningas Pike 147,NL,Vries,7387 RO,
,EE,East Sergey,30532,Tarmo Lake 92,NL,Haren Gn,2740 RV,
,AT,Traismauer,9714,Neumayerplatz 30,EE,Viktormouth,49275,
,AT,Altheim,2279,Manuel-Schwendinger-Weg 5,EE,Elenaville,91331,
,AT,Braunau am Inn,3125,Jasper-Heller-Gasse 49,AT,Fürstenfeld,2510,
,NL,Rijswijk (GLD),4124 IT,Charlottebaan 71,EE,North Kristjan,19198,
,NL,Hierden,5852 XF,Zoëweg 54,AT,Landeck,2308,
,NL,Beek,8401 RT,Yaraweg 29,NL,Haren Gn,2740 RV,
,NL,Empe,5280 KE,Kayleighpad 142,EE,Sillasteberg,66820,
,AT,Mank,9672,Hoferplatz 2,NL,Eindhoven,2501 AW,
,NL,Deest,4644 TX,Mayastraat 90,AT,Fürstenfeld,2510,
,AT,Dürnstein,1474,Grünwaldplatz 18,AT,Althofen,2500,
,AT,Oberndorf bei Salzburg,2976,Franz-Marx-Straße 1,EE,Lake Annelistad,34954,
,AT,Leibnitz,7672,Doblerplatz 23,EE,Piretbury,76255,
,EE,Port Antsmouth,69810,Raag Stream 119,AT,Grieskirchen,9040,
,NL,Mander,9197 HA,Mehmetstraat 86,EE,South Jüri,41096,
,EE,West Triin,45898,Nõmmik Views 107,EE,North Kristina,78705,
,AT,Bischofshofen,8418,Stögergasse 56,EE,Toomasberg,18879,
,NL,Tripscompagnie,8550 YW,Veerlehof 31,EE,Port Antsmouth,69810,
,EE,Alexandermouth,54606,Jaan River 88,AT,Frohnleiten,1017,
,NL,Slijkenburg,9504 AE,Joëlboulevard 47,EE,East Siimland,23309,
,NL,De Zilk,5250 EI,Sennalaan 52,AT,Rottenmann,4634,
,NL,Markenbinnen,6167 FA,Lolastraat 72,EE,Reimanntown,75020,
,EE,Jaanusborough,52268,Diana Island 107,NL,Krewerd,4410 NO,
,AT,Ybbs an der Donau,8336,Helmstr. 61,NL,De Zilk,5250 EI,
,NL,Punthorst,7086 LB,Larastraat 137,AT,Mautern an der Donau,9776,
,AT,Neulengbach,1341,Haasstr. 75,NL,Nieuwe Wetering,7551 DV,
,EE,Malleton,24650,Raadik Junctions 95,EE,South Jaanuschester,93376,
,NL,Farmsum,2103 QS,Esmeeweg 105,EE,Enebury,74120,
,AT,Mautern an der Donau,4451,Draxlergasse 17,AT,Bad Hall,7287,
,AT,Oberwälz,7370,Schützstraße 103,AT,Schrattenthal,9535,
,EE,North Tiinahaven,82365,Jekaterina Lake 44,NL,Meterik,9641 EG,
,EE,Vladimirville,84750,Maria Stream 106,EE,Mägichester,53090,
,NL,Nieuwe Pekela,2569 KW,Rikdreef 97,NL,Helvoirt,9135 MC,
,NL,Lobith,5348 TT,Samsteeg 87,NL,Lengel,3250 EH,
,NL,Nieuwe Wetering,7551 DV,Fatimasteeg 138,EE,West Sirjetown,55098,
,AT,Mautern an der Donau,4451,Draxlergasse 17,EE,Elenafort,10405,
,EE,Viksburgh,72061,Viktor Points 24,AT,Mattersburg,3850,
,AT,Amstetten,9831,Reischlstraße 16,EE,North Romanfurt,31917,
,AT,Dornbirn,6636,Erhartgasse 8,NL,Kerkrade,2575 PB,
,EE,North Irinaborough,12187,Priit Mount 91,AT,Schwanenstadt,1006,
,EE,West Mihkelton,89155,Maslov Walk 8,NL,Nieuw-Weerdinge,1897 GE,
,NL,Tonden,6650 HE,Sophiepad 68,AT,Bad Radkersburg,2617,
,EE,Sergejevmouth,87483,Toots Ridges 101,AT,Mautern an der Donau,9776,
,AT,Schärding,6152,Sabine-Burtscher-Gasse 108,EE,Annaview,92404,
,AT,Sankt Valentin,2330,Kalteneggerring 37,NL,Ansen,8813 TF,
,NL,Udenhout,8151 AR,Milanpad 127,NL,Boerakker,1371 WB,
,AT,Braunau am Inn,3125,Jasper-Heller-Gasse 49,NL,2e Exloërmond,6794 GH,
,EE,East Valentinaside,86682,Mihkel Well 135,NL,Meterik,9641 EG,
,NL,Ansen,8813 TF,Stefring 97,AT,Neulengbach,9365,
,NL,Westerbroek,8337 QD,Fennasteeg 133,AT,Gmunden,3043,
,AT,Rottenmann,2285,Madeleine-Teufl-Ring 6,NL,Boerakker,1371 WB,
,NL,Kerkrade,2575 PB,Lilysingel 63,NL,Markenbinnen,6167 FA,
,AT,Leoben,7362,Konstantin-Koller-Ring 94,AT,Schwanenstadt,1006,
,AT,Mautern an der Donau,4451,Draxlergasse 17,AT,Klagenfurt,4852,
,EE,Port Antsmouth,69810,Raag Stream 119,AT,Sankt Valentin,3787,
,AT,Wiener Neustadt,1976,Kernring 18,AT,Oberndorf bei Salzburg,2976,
,AT,Hainfeld,7929,Zettlplatz 114,AT,Freistadt,1267,
,NL,Schaijk,2940 CD,Juliesingel 112,AT,Amstetten,9831,
,EE,Piretbury,76255,Laura Corners 45,NL,Bovenkarspel,1203 IS,
,AT,Retz,6077,Steinlechnerring 79,AT,Mistelbach an der Zaya,1305,
,AT,Wörgl,1110,Calvin-Mitter-Straße 50,EE,Annaview,92404,
,NL,Haren Gn,2740 RV,Merlehof 84,AT,Grieskirchen,9040,
,AT,Dornbirn,6636,Erhartgasse 8,AT,Völkermarkt,7251,
,AT,Hainburg an der Donau,5910,Stefanie-Suppan-Ring 31,NL,Tienray,9511 QK,
,EE,East Sergey,30532,Tarmo Lake 92,NL,Wijnjewoude,1022 QH,
,AT,Liezen,4309,Lily-Rechberger-Ring 65,NL,Ewijk,3850 RP,
,EE,Tiitside,89287,Valentina Stravenue 16,EE,South Kristi,80489,
,NL,Nieuwe Wetering,7551 DV,Fatimasteeg 138,AT,Schrattenthal,5709,
,EE,Lake Andreshaven,70072,Nõmme Hollow 68,EE,Kristiinaburgh,43198,
,EE,North Tiinahaven,82365,Jekaterina Lake 44,AT,Mank,3433,
,AT,Mariazell,5458,Richard-Gamsjäger-Weg 134,AT,Gmunden,3043,
,EE,Maiefurt,41478,Oras Locks 130,EE,West Mihkelton,89155,
,AT,Frohnleiten,1017,Juliana-Kössler-Ring 18,NL,Meterik,9641 EG,
,NL,Oud Zuilen,5579 YN,Lukassteeg 84,NL,Puttershoek,5658 QN,
,NL,Dreumel,5051 YZ,Stenpad 39,AT,Innsbruck,2915,
,EE,Sergejevmouth,87483,Toots Ridges 101,AT,Amstetten,9831,
,NL,Lobith,5348 TT,Samsteeg 87,NL,Hierden,5852 XF,
,AT,Hainfeld,7929,Zettlplatz 114,NL,Vuren,2498 UD,
,NL,Voorthuizen,1552 NU,Tiesweg 137,AT,Drosendorf-Zissersdorf 1,2067,
,AT,Schrems,6626,Matheo-Aschauer-Platz 119,AT,Traismauer,9714,
,AT,Bad Radkersburg,2617,Wöhrerplatz 23,NL,Sleen,5361 RW,
,AT,Purkersdorf,1916,Henrik-Reinprecht-Straße 8,NL,Puttershoek,5658 QN,
,NL,Boerakker,1371 WB,Tijnring 65,AT,Eggenburg,1653,
,EE,Annaview,19618,Aino Divide 11,AT,Freistadt,1267,
,AT,Schrattenthal,5869,Elisabeth-Rössler-Ring 94,AT,Bregenz,4948,
,EE,Kasemaabury,83887,Tiiu Port 116,AT,Neulengbach,1341,
,AT,Baden,2908,Danilo-Mitterlehner-Gasse 113,EE,Gontšarovburgh,53738,
,EE,New Jelena,89190,Kristi Creek 38,EE,North Marekbury,94678,
,NL,Beerze,2439 GU,Pepijnsteeg 115,NL,Vuren,2498 UD,
,EE,North Marekbury,94678,Jaan Lights 107,NL,Grootschermer,2812 AU,
,AT,Landeck,2308,Fitzstraße 14,EE,Pulkmouth,57994,
,EE,Remmelview,87595,Nurk Forges 31,AT,Enns,2160,
,NL,Blokzijl,8697 EV,Madeliefstraat 141,AT,Neunkirchen,3226,
,AT,Stadtschlaining,3202,Joshua-Holzmann-Ring 35,EE,Kuuskmouth,18589,
,EE,West Sirjetown,55098,Kolk Stream 78,EE,Eveshire,98391,
,NL,Farmsum,2103 QS,Esmeeweg 105,NL,Grootschermer,2812 AU,
,NL,Udenhout,8151 AR,Milanpad 127,EE,West Triin,45898,
,EE,East Alexanderhaven,35134,Anne Manor 145,AT,Schwechat,3793,
,AT,Schwechat,3793,Laureen-Nowak-Weg 135,AT,Straßburg,8357,
,AT,Ybbs an der Donau,8336,Helmstr. 61,AT,Althofen,6456,
,AT,Gänserndorf,8049,Nikolai-Scheucher-Ring 93,NL,Meterik,9641 EG,
,AT,Mistelbach an der Zaya,1305,Adamweg 34,NL,Velserbroek,7518 QF,
,EE,South Jüri,41096,Sarap Crest 87,AT,Ternitz,4294,
,AT,Mank,3433,Voglring 145,EE,East Siimland,23309,
,EE,North Kristina,64165,Kilk Corner 132,EE,East Valentinaside,86682,
,AT,Neulengbach,9365,Florentina-Schweitzer-Gasse 39,EE,Annaview,92404,
,EE,Jaanusburgh,44952,Gontšarov Square 129,EE,Enebury,74120,
,NL,Vuren,2498 UD,Aliciahof 116,AT,Schrems,5265,
,AT,Oberndorf bei Salzburg,5038,Luise-Reiter-Ring 102,EE,Langtown,76772,
,NL,Sint Jansklooster,9210 KF,Noorweg 85,NL,Loënga,5768 LO,
,NL,Echteld,7621 AK,Bilalring 122,AT,Schrattenthal,5869,
,EE,Pulkmouth,57994,Kalmus Trail 111,EE,North Sergeiburgh,56893,
,AT,Wolfsberg,8575,Laureen-Heindl-Gasse 109,AT,Mattersburg,6922,
,AT,Mank,9672,Hoferplatz 2,EE,East Tiiuton,54724,
,AT,Braunau am Inn,3125,Jasper-Heller-Gasse 49,AT,Rottenmann,2285,
,AT,Althofen,6456,Pachlergasse 7,AT,Wels,5487,
,NL,Tienray,9511 QK,Evelienpad 133,AT,Dürnstein,6578,
,NL,Broekhuizenvorst,6061 BU,Milanlaan 109,EE,Sergejevmouth,87483,
,NL,2e Exloërmond,6794 GH,Vincebaan 98,EE,Port Viktor,23734,
,EE,South Jaanuschester,93376,Ossipov Crossroad 139,AT,Poysdorf,9968,
,NL,Ewijk,3850 RP,Lukahof 42,NL,Bakhuizen,2328 GS,
,EE,New Viktoria,59270,Marek Fords 19,EE,Lake Andreshaven,70072,
,AT,Köflach,1969,Fleischmanngasse 147,NL,Vorden,9898 VS,
,AT,Stadtschlaining,3202,Joshua-Holzmann-Ring 35,NL,Wieringerwaard,4884 ND,
,AT,Scheibbs,6984,Höflergasse 51,AT,Judenburg,8262,
,EE,Port Antsmouth,69810,Raag Stream 119,EE,New Valentina,32408,
,NL,Renesse,9458 SS,Britthof 19,NL,Renesse,9458 SS,
,NL,Den Horn,7237 IN,Lotpad 136,AT,Baden,1873,
,AT,Waidhofen an der Thaya,5432,Wilfingerring 135,AT,Fürstenfeld,9237,
,AT,Krems an der Donau,6060,Foidlstr. 65,AT,Ferlach,6055,
,EE,Remmelview,87595,Nurk Forges 31,AT,Wieselburg,8804,
,EE,Tuulikstad,28046,Novikov Place 120,AT,Oberndorf bei Salzburg,5038,
,AT,Poysdorf,9968,Reichlgasse 149,AT,Groß-Enzersdorf,5588,
,AT,Radenthein,7127,Benjamin-Tischler-Platz 73,EE,East Siimland,23309,
,NL,Monster,6397 YM,Joepboulevard 18,AT,Köflach,1969,
,AT,Grieskirchen,9040,Alexander-Kopf-Weg 18,NL,Ewijk,3850 RP,
,AT,Scheibbs,6984,Höflergasse 51,AT,Hainfeld,7929,
,AT,Waidhofen an der Thaya,5432,Wilfingerring 135,NL,Nieuwe Wetering,7551 DV,
,NL,Tienray,9511 QK,Evelienpad 133,EE,Gontšarovburgh,53738,
,AT,Frohnleiten,6578,Vito-Tanzer-Ring 46,EE,East Juri,74582,
,AT,Marchtrenk,4437,Hofstätterring 12,AT,Frohnleiten,9094,
,NL,Den Horn,7237 IN,Lotpad 136,EE,Lake Triin,47768,
,NL,Empe,5280 KE,Kayleighpad 142,EE,Alexandermouth,54606,
,EE,West Anna,34769,Olga Key 51,EE,West Sirjetown,55098,
,AT,Feldkirchen,9505,Wirthstraße 27,EE,Alexandermouth,54606,
,EE,Viktoriashire,33402,Tamme Port 139,EE,Elenaville,91331,
,NL,Voorthuizen,1552 NU,Tiesweg 137,EE,Reetbury,64161,
,NL,Boerakker,1371 WB,Tijnring 65,EE,Annaview,92404,
,EE,Indrekmouth,67144,Matvejev Orchard 138,NL,Tonden,6650 HE,
,EE,Lake Andreshaven,70072,Nõmme Hollow 68,NL,Nieuw-Weerdinge,1897 GE,
,AT,Retz,6077,Steinlechnerring 79,AT,Trieben,6473,
,NL,Voorburg,8196 WK,Juulsteeg 36,NL,Kuitaart,8918 NH,
,AT,Frohnleiten,1017,Juliana-Kössler-Ring 18,AT,Leoben,7362,
,EE,West Sirjetown,55098,Kolk Stream 78,AT,Bad Hall,9626,
,NL,Punthorst,2368 YL,Suzepad 34,AT,Schärding,2475,
,NL,Makkum,1350 SM,Noortjesteeg 33,EE,Lake Andreshaven,70072,
,NL,Bovenkarspel,1203 IS,Annemijnboulevard 149,EE,Anneshire,31221,
,EE,Lake Raivo,33773,Sutt Route 145,AT,Sankt Valentin,2330,
,EE,Toomasberg,18879,Anu Trace 90,AT,Altheim,2279,
,EE,West Anna,34769,Olga Key 51,NL,Monster,6397 YM,
,NL,Grootschermer,2812 AU,Isisring 85,EE,Kasemaabury,83887,
,NL,Uithoorn,9783 DD,Sebastiaanhof 142,EE,Annaview,92404,
,EE,Kozlovborough,21696,Paju Court 56,AT,Ternitz,4294,
,AT,Frohnleiten,9094,Anita-Trattner-Straße 85,AT,Amstetten,8952,
,AT,Traun,9775,Igor-Grüner-Weg 111,NL,Westerbroek,8337 QD,
,AT,Oberndorf bei Salzburg,5038,Luise-Reiter-Ring 102,EE,Jaanusborough,52268,
,EE,New Jelena,89190,Kristi Creek 38,NL,Steenenkamer,7522 PX,
,AT,Poysdorf,9968,Reichlgasse 149,NL,Deest,4644 TX,
,NL,Rijswijk (GLD),4124 IT,Charlottebaan 71,AT,Völkermarkt,7251,
,AT,Zwettl,9873,Jessica-Bachmann-Straße 83,NL,Farmsum,2103 QS,
,AT,Neulengbach,1341,Haasstr. 75,NL,Kerkrade,2575 PB,
,NL,Haren Gn,2740 RV,Merlehof 84,NL,Beerze,2439 GU,
,NL,Renesse,9458 SS,Britthof 19,EE,Lake Raivo,33773,
,EE,Viksburgh,72061,Viktor Points 24,AT,Bad Vöslau,8890,
,AT,Leoben,7362,Konstantin-Koller-Ring 94,AT,Oberndorf bei Salzburg,2976,
,AT,Neulengbach,9365,Florentina-Schweitzer-Gasse 39,AT,Dürnstein,6578,
,AT,Rottenmann,2285,Madeleine-Teufl-Ring 6,NL,Zijdewind,2212 BB,
,AT,Stockerau,1207,Salzmannplatz 32,EE,North Tiiuville,20501,
,NL,Farmsum,2103 QS,Esmeeweg 105,AT,Bruck an der Leitha,3820,
,AT,Mürzzuschlag,8603,Tiffany-Wimmer-Weg 50,AT,Wilhelmsburg,9737,
,NL,Laag-Keppel,5912 EL,Emmabaan 11,AT,Zistersdorf,8052,
,EE,East Valentinaside,86682,Mihkel Well 135,AT,Althofen,6456,
,EE,Vladimirville,84750,Maria Stream 106,EE,Lake Dianastad,99041,
,AT,Judenburg,8262,Jennifer-Bernhard-Gasse 77,EE,Kasemaabury,83887,
,EE,North Tiinahaven,82365,Jekaterina Lake 44,AT,Neunkirchen,3226,
,NL,Dreumel,5051 YZ,Stenpad 39,AT,Bad Hall,7287,
,EE,Sergejevmouth,87483,Toots Ridges 101,EE,Kisseljovside,33477,
,NL,Wapse,6493 TX,Aaliyahdreef 118,AT,Wiener Neustadt,1976,
,AT,Wieselburg,2431,Ellergasse 123,NL,Helvoirt,9135 MC,
,EE,Kozlovborough,21696,Paju Court 56,EE,North Kristina,78705,
,AT,Leoben,7362,Konstantin-Koller-Ring 94,NL,Schaijk,2940 CD,
,EE,Port Antsmouth,69810,Raag Stream 119,AT,Wieselburg,8804,
,NL,Makkum,2114 MG,Tarasteeg 102,NL,2e Exloërmond,6794 GH,
,NL,Kuitaart,8918 NH,Bastiaanpad 40,AT,Purkersdorf,1916,
,NL,Hierden,5852 XF,Zoëweg 54,NL,Lengel,3250 EH,
,NL,Voorburg,8196 WK,Juulsteeg 36,AT,Ternitz,7599,
,EE,Kasemaabury,83887,Tiiu Port 116,NL,Kerkrade,2575 PB,
,EE,New Roman,13028,Katrin Spur 147,NL,Bakhuizen,2328 GS,
,NL,Slijkenburg,9504 AE,Joëlboulevard 47,AT,Gänserndorf,8049,
,AT,Bad Leonfelden,2034,Estelle-Suppan-Platz 79,NL,Zeijerveen,5296 CJ,
,AT,Bad Hall,7287,Fritschstraße 10,EE,Elenafort,10405,
,AT,Jennersdorf,4114,Nikola-Schwab-Ring 3,EE,Eveshire,98391,
,AT,Mattersburg,3850,Jasmine-Puntigam-Platz 74,NL,Hierden,5852 XF,
,EE,North Romanfurt,31917,Priit Street 91,NL,Mander,9197 HA,
,AT,Neulengbach,9365,Florentina-Schweitzer-Gasse 39,EE,Gontšarovburgh,53738,
,AT,Mank,3433,Voglring 145,EE,Jaanusborough,52268,
,EE,East Anneburgh,58498,Luik Garden 129,NL,Westerhoven,4010 ND,
,AT,Schrattenthal,5709,Elyas-Pieber-Gasse 121,EE,Remmelview,87595,
,AT,Oberndorf bei Salzburg,5038,Luise-Reiter-Ring 102,EE,Lake Irinatown,86538,
,AT,Baden,2908,Danilo-Mitterlehner-Gasse 113,NL,Pietersbierum,2476 JN,
,EE,Toomasberg,18879,Anu Trace 90,AT,Bad Leonfelden,2034,
,NL,Basse,5137 CW,Amirabaan 48,EE,Annaview,92404,
,EE,Lake Annelistad,34954,Laura Lodge 8,AT,Sankt Valentin,3787,
,AT,Leibnitz,5161,Pendlring 71,NL,Den Horn,7237 IN,
,EE,Elenafort,10405,Sergey Forge 83,NL,Simpelveld,2743 UN,
,AT,Wilhelmsburg,9737,Aichingerweg 17,AT,Oberwälz,7370,
,AT,Mautern an der Donau,4451,Draxlergasse 17,NL,Sint Jansklooster,9210 KF,
,AT,Bärnbach,1478,Schiestlweg 58,EE,West Sirjetown,55098,
,AT,Waidhofen an der Thaya,5432,Wilfingerring 135,NL,Blesdijke,7031 CH,
,NL,Vuren,2498 UD,Aliciahof 116,AT,Sankt Pölten,2851,
,AT,Drosendorf-Zissersdorf 1,2067,Maurerstraße 58,AT,Purbach am Neusiedler See,2252,
,AT,Retz,6077,Steinlechnerring 79,EE,East Tiiuton,54724,
,AT,Bad Hall,7287,Fritschstraße 10,AT,Klagenfurt,4852,
,EE,Langtown,76772,Anna Inlet 146,AT,Mariazell,5458,
,EE,North Marekbury,94678,Jaan Lights 107,EE,North Kristina,78705,
,EE,Alexandermouth,54606,Jaan River 88,AT,Amstetten,9831,
,EE,Elenafort,10405,Sergey Forge 83,NL,Punthorst,7086 LB,
,AT,Leoben,7362,Konstantin-Koller-Ring 94,AT,Marchtrenk,4437,
,EE,Port Alekseiland,37382,Aino Plains 117,AT,Rottenmann,6888,
,EE,Lake Andreshaven,70072,Nõmme Hollow 68,AT,Köflach,1969,
,NL,Echteld,7621 AK,Bilalring 122,EE,Piretbury,76255,
,AT,Dürnstein,5667,Dana-Neumayr-Straße 111,AT,Bad Hall,7287,
,AT,Hainburg an der Donau,5910,Stefanie-Suppan-Ring 31,AT,Bregenz,4948,
,NL,Hidaard,1008 JC,Jasperhof 106,NL,Bakhuizen,2328 GS,
,NL,Boerakker,1371 WB,Tijnring 65,NL,Hierden,5852 XF,
,AT,Baden,1873,Barbara-Mitterlehner-Gasse 123,AT,Marchtrenk,4437,
,AT,Neulengbach,9365,Florentina-Schweitzer-Gasse 39,AT,Dürnstein,5667,
,NL,Echteld,6042 AC,Berendpad 16,EE,Lake Andreshaven,70072,
,AT,Villach,2107,Verena-Riedmann-Straße 92,EE,Annuschester,41165,
,EE,North Kristina,78705,Rätsep Mill 49,AT,Retz,6077,
,NL,Echteld,6042 AC,Berendpad 16,NL,Basse,5137 CW,
,NL,2e Exloërmond,6794 GH,Vincebaan 98,EE,Elenafort,10405,
,AT,Amstetten,9831,Reischlstraße 16,AT,Freistadt,1267,
,EE,Port Alekseiland,37382,Aino Plains 117,NL,Kuitaart,8918 NH,
,AT,Ternitz,4294,Justin-Gross-Straße 126,EE,Lake Peeterfort,56464,
,AT,Mank,1500,Handlstr. 98,AT,Mürzzuschlag,8603,
,NL,'s-Graveland,5492 CV,Mikepad 33,NL,Helvoirt,9135 MC,
,AT,Fürstenfeld,2510,Marvin-Jahn-Straße 111,EE,South Marina,83491,
,NL,Helvoirt,9135 MC,Beratbaan 11,NL,Sleen,5361 RW,
,EE,Lake Annelistad,34954,Laura Lodge 8,AT,Kufstein,2617,
,AT,Zistersdorf,7590,Rothstr. 97,NL,Laag-Keppel,5912 EL,
,NL,Bakhuizen,2328 GS,Meikelaan 31,EE,Eveshire,98391,
,EE,Jevgenifort,84956,Kadri Island 34,NL,Nieuwe Pekela,2569 KW,
,AT,Raabs an der Thaya,5206,Tim-Scholz-Weg 102,AT,Fürstenfeld,9237,
,EE,Kristiinaburgh,43198,Reet Port 145,AT,Radenthein,7127,
,AT,Marchtrenk,7718,Claire-Posch-Ring 75,EE,East Tiiuton,54724,
,NL,Lathum,1463 YW,Amberhof 92,NL,Laag-Keppel,5912 EL,
,AT,Krems an der Donau,6060,Foidlstr. 65,AT,Grieskirchen,9040,
,NL,Markenbinnen,6167 FA,Lolastraat 72,EE,Lake Triin,47768,
,EE,Annuschester,41165,Laas Stream 41,NL,Nieuw-Weerdinge,1897 GE,
,AT,Raabs an der Thaya,9317,Scharfstr. 101,AT,Feldkirchen,9505,
,EE,North Natalja,19732,Lebedev Extensions 76,NL,Wetsens,5380 XN,
,AT,Mattersburg,6922,Urbanstraße 86,NL,Wijnjewoude,1022 QH,
,AT,Ferlach,6055,Fernando-Polzer-Platz 77,EE,Andreiside,45067,
,AT,Dürnstein,5667,Dana-Neumayr-Straße 111,AT,Fürstenfeld,2510,
,EE,Ülleview,82106,Valeri Locks 82,EE,Reetbury,64161,
,EE,North Marekbury,94678,Jaan Lights 107,AT,Wieselburg,8804,
,EE,Andreiside,45067,Anne Stravenue 82,EE,North Marekbury,94678,
,NL,Slijkenburg,9504 AE,Joëlboulevard 47,NL,Grootschermer,2812 AU,
,NL,Empe,5280 KE,Kayleighpad 142,AT,Villach,2107,
,AT,Raabs an der Thaya,5206,Tim-Scholz-Weg 102,AT,Wiener Neustadt,1976,
,EE,Aderport,41550,Nikiforov Mountains 28,EE,North Kristjan,19198,
,NL,Vorden,9898 VS,Kyanboulevard 125,EE,Lake Annelistad,34954,
,NL,Vorden,9898 VS,Kyanboulevard 125,EE,Lake Raivo,33773,
,NL,Wehl,3890 QA,Martsingel 139,AT,Gmunden,3043,
,AT,Pregarten,5773,Karoline-Horak-Gasse 146,EE,Indrekmouth,67144,
,EE,North Tiiuville,20501,Reet Club 38,NL,Kerkrade,2575 PB,
,EE,East Sergey,30532,Tarmo Lake 92,EE,Kisseljovside,33477,
,AT,Wiener Neustadt,1976,Kernring 18,EE,Sergejevmouth,87483,
,EE,Elenaville,91331,Maksim Crest 99,NL,Angeren,9800 AU,
,NL,Beutenaken,7993 AP,Gijsweg 99,EE,East Nikolai,80378,
,AT,Waidhofen an der Thaya,2791,Erhartstraße 85,AT,Radenthein,7127,
,AT,Dürnstein,6578,Calvin-Kasper-Straße 46,AT,Stadtschlaining,9765,
,EE,Tuulikstad,28046,Novikov Place 120,EE,Mägichester,53090,
,NL,Steenenkamer,7522 PX,Livsteeg 9,NL,Kerkrade,2575 PB,
,NL,Meterik,9641 EG,Timpad 65,EE,Jaanusburgh,44952,
,AT,Dürnstein,1474,Grünwaldplatz 18,AT,Mariazell,5458,
,EE,Viktormouth,49275,Kiil Parks 137,EE,East Juri,74582,
,EE,Elenaville,91331,Maksim Crest 99,AT,Landeck,2308,
,AT,Feldkirchen,9505,Wirthstraße 27,AT,Köflach,1969,
,EE,South Elena,57329,Jekaterina Island 140,EE,Viktoriashire,33402,
,AT,Innsbruck,6940,Ava-Schütz-Gasse 99,AT,Bischofshofen,8418,
,EE,Port Alekseiland,37382,Aino Plains 117,AT,Ternitz,7599,
,NL,Simpelveld,2743 UN,Sennasteeg 120,AT,Kufstein,2617,
,AT,Innsbruck,2915,Leopold-Krainer-Platz 29,EE,West Triin,45898,
,EE,Piretbury,76255,Laura Corners 45,AT,Marchtrenk,4437,
,AT,Traun,9775,Igor-Grüner-Weg 111,EE,Aderport,41550,
,NL,Beutenaken,7993 AP,Gijsweg 99,EE,Aderport,41550,
,AT,Oberndorf bei Salzburg,5038,Luise-Reiter-Ring 102,AT,Mariazell,5458,
,EE,Lake Peeterfort,56464,Laura Ville 32,AT,Baden,1873,
,EE,Viksburgh,72061,Viktor Points 24,AT,Gänserndorf,8049,
,AT,Rottenmann,4988,Elina-Wurzer-Platz 107,EE,North Romanfurt,31917,
,NL,Voorburg,8196 WK,Juulsteeg 36,AT,Purkersdorf,1916,
,AT,Herzogenburg,9244,Josef-Haderer-Ring 12,NL,Laag-Keppel,5912 EL,
,AT,Villach,2107,Verena-Riedmann-Straße 92,AT,Oberwälz,7370,
,NL,Basse,5137 CW,Amirabaan 48,EE,Kuuskmouth,18589,
,NL,Beek,8401 RT,Yaraweg 29,EE,Vladimirville,84750,
,NL,Monster,6397 YM,Joepboulevard 18,EE,Viktoriashire,33402,
,NL,Zijdewind,2212 BB,Aydenstraat 36,AT,Wieselburg,8804,
,EE,Lake Tõnushire,94797,Aivar Street 42,EE,West Mihkelton,89155,
,AT,Innsbruck,2915,Leopold-Krainer-Platz 29,NL,Lathum,1463 YW,
,EE,Jaanusborough,52268,Diana Island 107,NL,Rijswijk (GLD),4124 IT,
,EE,Indrekmouth,67144,Matvejev Orchard 138,AT,Waidhofen an der Ybbs,2963,
,NL,Blesdijke,7031 CH,Carlijnsteeg 86,AT,Gmunden,3043,
,AT,Neulengbach,1341,Haasstr. 75,EE,Annaview,19618,
,NL,Hierden,5852 XF,Zoëweg 54,NL,Basse,5137 CW,
,AT,Traun,9775,Igor-Grüner-Weg 111,EE,North Kristina,78705,
,AT,Radenthein,7127,Benjamin-Tischler-Platz 73,AT,Stockerau,1207,
,AT,Oberwälz,7370,Schützstraße 103,AT,Hainfeld,7929,
,NL,Tonden,6650 HE,Sophiepad 68,NL,Deest,4644 TX,
,NL,Wetsens,5380 XN,Zakarialaan 46,AT,Traismauer,9714,
,EE,Urmasland,21111,Anna Fork 68,AT,Oberwälz,7370,
,EE,Pulkmouth,57994,Kalmus Trail 111,AT,Neunkirchen,3226,
,AT,Drosendorf-Zissersdorf 1,2067,Maurerstraße 58,AT,Ebenfurth,8571,
,AT,Jennersdorf,4114,Nikola-Schwab-Ring 3,NL,Zeijerveen,5296 CJ,
,EE,Elenafort,10405,Sergey Forge 83,AT,Feldkirchen,9505,
,NL,Westerbroek,8337 QD,Fennasteeg 133,NL,Nieuwe Wetering,7551 DV,
,AT,Radenthein,7127,Benjamin-Tischler-Platz 73,EE,Enebury,74120,
,AT,Stadtschlaining,9765,Lisa-Wöhrer-Straße 147,AT,Zistersdorf,8052,
,NL,Hekelingen,8055 SW,Azraweg 17,NL,Bovenkarspel,1203 IS,
,AT,Bad Leonfelden,2034,Estelle-Suppan-Platz 79,NL,Helvoirt,9135 MC,
,EE,East Sander,51250,Urb Point 70,AT,Mistelbach an der Zaya,1305,
,AT,Enns,2160,Alara-Reif-Weg 88,EE,West Andrei,67560,
,AT,Dürnstein,6578,Calvin-Kasper-Straße 46,EE,East Sergey,30532,
,EE,South Marina,83491,Kuningas Pike 147,NL,Laag-Keppel,5912 EL,
,AT,Stadtschlaining,3202,Joshua-Holzmann-Ring 35,NL,Punthorst,7086 LB,
,EE,East Sander,51250,Urb Point 70,NL,Venhorst,1059 KC,
,EE,East Nikolai,80378,Tarassov Mission 81,AT,Villach,2107,
,AT,Neulengbach,9365,Florentina-Schweitzer-Gasse 39,EE,Vladimirville,84750,
,NL,Makkum,2114 MG,Tarasteeg 102,EE,East Sander,51250,
,EE,Tiitside,89287,Valentina Stravenue 16,NL,Markenbinnen,6167 FA,
,AT,Schrems,6626,Matheo-Aschauer-Platz 119,NL,Beerze,2439 GU,
,EE,Gontšarovburgh,53738,Tiina Brooks 18,AT,Judenburg,8262,
,NL,Renesse,9458 SS,Britthof 19,NL,Sint Jansklooster,9210 KF,
,AT,Neulengbach,1341,Haasstr. 75,AT,Scheibbs,6984,
,EE,Sergejevmouth,87483,Toots Ridges 101,EE,Mägichester,53090,
,AT,Waidhofen an der Thaya,5432,Wilfingerring 135,EE,Elenafort,10405,
,EE,Maiefurt,41478,Oras Locks 130,AT,Eggenburg,1653,
,NL,Deest,4644 TX,Mayastraat 90,EE,New Viktoria,59270,
,AT,Stockerau,1207,Salzmannplatz 32,AT,Frohnleiten,6578,
,AT,Ybbs an der Donau,8336,Helmstr. 61,EE,Reetbury,64161,
,AT,Innsbruck,2915,Leopold-Krainer-Platz 29,EE,New Roman,13028,
,NL,Venhorst,1059 KC,Mikastraat 133,AT,Grieskirchen,9040,
,NL,Simpelveld,2743 UN,Sennasteeg 120,NL,Simpelveld,2743 UN,
,AT,Enns,6783,Reischlstr. 110,AT,Mürzzuschlag,8603,
,NL,Stiens,8173 CV,Lindseyhof 123,NL,Hekelingen,8055 SW,
,EE,Urmasland,21111,Anna Fork 68,EE,North Aivarstad,78822,
,AT,Frohnleiten,6578,Vito-Tanzer-Ring 46,AT,Ybbs an der Donau,8336,
,AT,Raabs an der Thaya,9317,Scharfstr. 101,AT,Gföhl,7399,
,NL,Grootschermer,2812 AU,Isisring 85,EE,Ülleview,82106,
,AT,Freistadt,1267,Buchbergerring 81,AT,Völkermarkt,7251,
,EE,New Viktoria,59270,Marek Fords 19,NL,Dreischor,3354 WO,
,EE,Annuschester,41165,Laas Stream 41,AT,Bischofshofen,8418,
,EE,North Marekbury,94678,Jaan Lights 107,EE,Kuuskmouth,18589,
,AT,Jennersdorf,4114,Nikola-Schwab-Ring 3,NL,Barendrecht,9916 ZQ,
,EE,East Nikolai,80378,Tarassov Mission 81,NL,Sleen,5361 RW,
,NL,2e Exloërmond,6794 GH,Vincebaan 98,AT,Zistersdorf,7590,
,AT,Leoben,7362,Konstantin-Koller-Ring 94,EE,Langtown,76772,
,EE,North Kristjan,19198,Tiina Fork 142,EE,Maiefurt,41478,
,EE,West Mihkelton,89155,Maslov Walk 8,AT,Zistersdorf,8052,
,NL,Den Horn,7237 IN,Lotpad 136,NL,Udenhout,8151 AR,
,NL,Kerkrade,2575 PB,Lilysingel 63,EE,South Jaanuschester,93376,
,EE,Enebury,74120,Müür Park 111,NL,Vuren,2498 UD,
,AT,Drosendorf-Zissersdorf 1,2067,Maurerstraße 58,AT,Mariazell,5414,
,NL,Meterik,9641 EG,Timpad 65,EE,Indrekmouth,67144,
,AT,Neunkirchen,3226,Boris-Ladner-Platz 8,AT,Purbach am Neusiedler See,2252,
,NL,2e Exloërmond,6794 GH,Vincebaan 98,EE,South Elena,57329,
,AT,Grieskirchen,9040,Alexander-Kopf-Weg 18,AT,Baden,2908,
,EE,Piretbury,76255,Laura Corners 45,AT,Bruck an der Leitha,3820,
,AT,Scheibbs,6984,Höflergasse 51,NL,Ansen,8813 TF,
,EE,South Kristi,80489,Galina Villages 104,NL,Beek,8401 RT,
,NL,Blokzijl,8697 EV,Madeliefstraat 141,NL,Wetsens,5380 XN,
,NL,2e Exloërmond,6794 GH,Vincebaan 98,AT,Ebenfurth,8571,
,AT,Fürstenfeld,9237,Nikolina-Kucera-Straße 39,AT,Wieselburg,8804,
,NL,De Zilk,5250 EI,Sennalaan 52,EE,Andreiside,45067,
,EE,Elenaville,91331,Maksim Crest 99,AT,Bregenz,4948,
,EE,North Tiiuville,20501,Reet Club 38,AT,Waidhofen an der Thaya,5432,
,NL,Westerhoven,4010 ND,Sebastiaanhof 113,EE,North Sergeiburgh,56893,
,EE,Kisseljovside,33477,Aleksandr Knolls 104,AT,Sankt Valentin,2330,
,NL,Hoofddorp,5788 LP,Saarsteeg 12,EE,Urmasland,21111,
,EE,Reimanntown,75020,Mäesalu Locks 135,EE,Langtown,76772,
,NL,Wieringerwaard,4884 ND,Sennapad 149,AT,Neunkirchen,3226,
,AT,Frohnleiten,9094,Anita-Trattner-Straße 85,AT,Purbach am Neusiedler See,2252,
,EE,North Irinaborough,12187,Priit Mount 91,EE,Sergejevmouth,87483,
,AT,Völkermarkt,7251,John-Varga-Straße 113,NL,Hidaard,1008 JC,
,NL,Oldenzijl,4196 EO,Felixstraat 76,NL,Tienray,9511 QK,
,AT,Fürstenfeld,9237,Nikolina-Kucera-Straße 39,NL,Nieuwe Pekela,2569 KW,
,NL,'s-Graveland,5492 CV,Mikepad 33,EE,North Irinaborough,12187,
,NL,Egmond-Binnen,6400 YE,Gerritring 67,NL,Voorburg,8196 WK,
,EE,Kristiinaburgh,43198,Reet Port 145,NL,Simpelveld,2743 UN,
,AT,Traismauer,9714,Neumayerplatz 30,NL,Westerhoven,4010 ND,
,AT,Herzogenburg,9244,Josef-Haderer-Ring 12,EE,Lake Annelistad,34954,
,EE,Toomasberg,18879,Anu Trace 90,EE,New Jelena,89190,
,EE,Port Viktor,23734,Anu Isle 106,AT,Enns,6783,
,NL,De Zilk,5250 EI,Sennalaan 52,EE,Palumouth,97685,
,EE,Lake Annelistad,34954,Laura Lodge 8,EE,Õunburgh,72780,
,NL,Beek,8401 RT,Yaraweg 29,EE,East Siimland,23309,
,AT,Mistelbach an der Zaya,1305,Adamweg 34,AT,Oberndorf bei Salzburg,2976,
,AT,Mariazell,5458,Richard-Gamsjäger-Weg 134,NL,Deest,4644 TX,
,EE,Kisseljovside,33477,Aleksandr Knolls 104,NL,Lengel,3250 EH,
,NL,Schaijk,2940 CD,Juliesingel 112,EE,Jaanusburgh,44952,
,EE,East Valentinaside,86682,Mihkel Well 135,NL,'s-Graveland,5492 CV,
,EE,North Natalja,19732,Lebedev Extensions 76,AT,Pregarten,5773,
,AT,Bad Radkersburg,2617,Wöhrerplatz 23,AT,Mattersburg,6922,
,AT,Landeck,2308,Fitzstraße 14,NL,Egmond-Binnen,6400 YE,
,AT,Feldkirchen,2486,Walterplatz 132,NL,Westerbroek,8337 QD,
,AT,Ferlach,6055,Fernando-Polzer-Platz 77,EE,Ülleview,82106,
,AT,Dornbirn,6636,Erhartgasse 8,NL,Oldenzijl,4196 EO,
,NL,Hidaard,1008 JC,Jasperhof 106,AT,Sankt Pölten,2851,
,NL,Zeijerveen,5296 CJ,Mickring 114,NL,Broekhuizenvorst,6061 BU,
,AT,Braunau am Inn,3125,Jasper-Heller-Gasse 49,AT,Stadtschlaining,3202,
,NL,Markenbinnen,6167 FA,Lolastraat 72,AT,Schrattenthal,5709,
,AT,Wieselburg,2431,Ellergasse 123,EE,North Kristjan,19198,
,AT,Amstetten,8952,Waldnergasse 42,EE,Kristiinaburgh,43198,
,AT,Landeck,2308,Fitzstraße 14,AT,Judenburg,8262,
,NL,Wehl,3890 QA,Martsingel 139,EE,Kristiinaburgh,43198,
,AT,Innsbruck,6940,Ava-Schütz-Gasse 99,EE,New Viktoria,59270,
,AT,Oberndorf bei Salzburg,2976,Franz-Marx-Straße 1,EE,Lake Tõnushire,94797,
,EE,Annaview,19618,Aino Divide 11,EE,East Sander,51250,
,NL,Wehl,3890 QA,Martsingel 139,EE,West Anna,34769,
,EE,Lake Tõnushire,94797,Aivar Street 42,AT,Grieskirchen,9040,
,AT,Althofen,2500,Mark-Rossmann-Ring 140,NL,Beerze,2439 GU,
,AT,Mautern an der Donau,9776,Isabella-Trinkl-Platz 135,EE,East Siimland,23309,
,AT,Dürnstein,1474,Grünwaldplatz 18,EE,East Nikolai,80378,
,EE,Vainmouth,72093,Aino Cape 70,EE,Triinfurt,51891,
,AT,Innsbruck,2915,Leopold-Krainer-Platz 29,AT,Oberndorf bei Salzburg,2976,
,NL,Mander,9197 HA,Mehmetstraat 86,NL,Slijkenburg,9504 AE,
,NL,Empe,5280 KE,Kayleighpad 142,AT,Oberndorf bei Salzburg,5038,
,EE,New Viktoria,59270,Marek Fords 19,NL,Farmsum,2103 QS,
,NL,Vries,7387 RO,Youssefdreef 133,NL,Broekhuizenvorst,6061 BU,
,AT,Villach,2107,Verena-Riedmann-Straße 92,NL,Deest,4644 TX,
,AT,Trieben,3252,Melisa-Werner-Straße 111,NL,'s-Graveland,5492 CV,
,AT,Althofen,2500,Mark-Rossmann-Ring 140,NL,Tripscompagnie,8550 YW,
,EE,South Meelis,74495,Aleksandr Pines 41,EE,Kisseljovside,33477,
,EE,South Elena,57329,Jekaterina Island 140,EE,West Triin,45898,
,NL,Nieuwe Wetering,7551 DV,Fatimasteeg 138,AT,Leibnitz,7672,
,NL,Echteld,7621 AK,Bilalring 122,NL,Vorden,9898 VS,
,AT,Frohnleiten,2476,Reichmannweg 137,NL,Grootschermer,2812 AU,
,EE,Langtown,76772,Anna Inlet 146,AT,Groß-Enzersdorf,5588,
,AT,Bärnbach,1478,Schiestlweg 58,NL,Vorden,9898 VS,
,NL,Laag-Keppel,5912 EL,Emmabaan 11,EE,North Kristina,64165,
,AT,Freistadt,1267,Buchbergerring 81,EE,West Andrei,67560,
,AT,Traun,9775,Igor-Grüner-Weg 111,NL,Wieringerwaard,4884 ND,
,NL,Lengel,3250 EH,Pimstraat 126,EE,East Juri,74582,
,AT,Hainburg an der Donau,5910,Stefanie-Suppan-Ring 31,EE,Lake Andreshaven,70072,
,NL,Punthorst,2368 YL,Suzepad 34,NL,Oldenzijl,4196 EO,
,EE,East Siimland,23309,Kondratjev Pike 122,EE,Ülleview,82106,
,EE,Jaanusburgh,44952,Gontšarov Square 129,EE,Gontšarovburgh,53738,
,EE,Kozlovborough,21696,Paju Court 56,EE,East Tiiuton,54724,
,NL,Renesse,9458 SS,Britthof 19,EE,Indrekmouth,67144,
,EE,Gontšarovburgh,53738,Tiina Brooks 18,AT,Landeck,2308,
,EE,Indrekmouth,67144,Matvejev Orchard 138,NL,Eindhoven,2501 AW,
,AT,Waidhofen an der Ybbs,2963,Steinkellnergasse 54,AT,Bärnbach,1478,
,EE,East Sergey,30532,Tarmo Lake 92,AT,Rottenmann,4988,
,NL,Meterik,9641 EG,Timpad 65,AT,Schärding,2475,
,NL,Dreischor,3354 WO,Martdreef 99,NL,Angeren,9800 AU,
,AT,Raabs an der Thaya,5206,Tim-Scholz-Weg 102,EE,Kisseljovside,33477,
,AT,Marchtrenk,4437,Hofstätterring 12,EE,New Viktoria,59270,
,AT,Scheibbs,6984,Höflergasse 51,AT,Baden,1873,
,EE,Alexandermouth,54606,Jaan River 88,AT,Ternitz,4294,
,AT,Drosendorf-Zissersdorf 1,2067,Maurerstraße 58,NL,Venhorst,1059 KC,
,AT,Rottenmann,2285,Madeleine-Teufl-Ring 6,EE,East Juri,74582,
,AT,Enns,2160,Alara-Reif-Weg 88,NL,Farmsum,2103 QS,
,AT,Leoben,7362,Konstantin-Koller-Ring 94,EE,Kuuskmouth,18589,
,AT,Sankt Valentin,3787,Cornelius-Mitterer-Ring 83,EE,South Meelis,74495,
,NL,Reeuwijk,9251 OB,Jurrering 133,EE,Tiitside,89287,
,EE,Kozlovborough,21696,Paju Court 56,AT,Leibnitz,7672,
,NL,Deest,4644 TX,Mayastraat 90,EE,Mägichester,53090,
,NL,Hoofddorp,5788 LP,Saarsteeg 12,AT,Wiener Neustadt,1976,
,EE,Elenaville,91331,Maksim Crest 99,NL,Barendrecht,9916 ZQ,
,NL,Wapse,6493 TX,Aaliyahdreef 118,EE,East Siimland,23309,
,NL,Rijswijk (GLD),4124 IT,Charlottebaan 71,EE,South Jaanuschester,93376,
,EE,South Kristi,80489,Galina Villages 104,EE,Jevgenifort,84956,
,EE,North Kristjan,19198,Tiina Fork 142,NL,Mander,9197 HA,
,AT,Frohnleiten,9094,Anita-Trattner-Straße 85,NL,Bovenkarspel,1203 IS,
,AT,Mürzzuschlag,8603,Tiffany-Wimmer-Weg 50,AT,Sankt Pölten,2851,
,EE,West Triin,45898,Nõmmik Views 107,AT,Dornbirn,6636,
,AT,Althofen,6456,Pachlergasse 7,NL,Dreumel,5051 YZ,
,NL,Slijkenburg,9504 AE,Joëlboulevard 47,AT,Mank,3433,
,NL,Lathum,1463 YW,Amberhof 92,EE,East Sergey,30532,
,AT,Bruck an der Leitha,3820,Larissa-Eberharter-Ring 62,AT,Gmunden,5878,
,AT,Wolfsberg,8575,Laureen-Heindl-Gasse 109,AT,Retz,6077,
,AT,Trieben,3252,Melisa-Werner-Straße 111,NL,Mander,9197 HA,
,AT,Bruck an der Leitha,3820,Larissa-Eberharter-Ring 62,AT,Poysdorf,9968,
,AT,Sankt Valentin,2330,Kalteneggerring 37,AT,Wolfsberg,8575,
,NL,Vries,7387 RO,Youssefdreef 133,EE,Ülleview,82106,
,AT,Frohnleiten,2476,Reichmannweg 137,AT,Stadtschlaining,3202,
,NL,Zevenhoven,4578 MH,Jasmijnweg 8,EE,North Sergeiburgh,56893,
,AT,Kufstein,2617,Dana-Edlinger-Straße 95,NL,Bakhuizen,2328 GS,
,EE,Reimanntown,75020,Mäesalu Locks 135,AT,Feldkirchen,2486,
,AT,Waidhofen an der Ybbs,2963,Steinkellnergasse 54,EE,Kozlovborough,21696,
,AT,Wilhelmsburg,9737,Aichingerweg 17,EE,Palumouth,97685,
,AT,Eggenburg,1653,Veronika-Himmelbauer-Straße 79,AT,Raabs an der Thaya,9317,
,NL,Eindhoven,2501 AW,Tijslaan 138,EE,Õunburgh,72780,
,AT,Baden,1873,Barbara-Mitterlehner-Gasse 123,EE,Sillasteberg,66820,
,AT,Schrattenthal,9535,Loiblplatz 8,AT,Schrattenthal,9535,
,AT,Mariazell,5458,Richard-Gamsjäger-Weg 134,EE,Andreiside,45067,
,AT,Schwanenstadt,1006,Petra-Falkner-Straße 107,AT,Amstetten,9831,
,AT,Dornbirn,6636,Erhartgasse 8,AT,Zistersdorf,7590,
,NL,Angeren,9800 AU,Daniweg 69,NL,IJsselham,7370 DH,
,EE,Viktormouth,49275,Kiil Parks 137,EE,East Tiiuton,54724,
,EE,Lake Annelistad,34954,Laura Lodge 8,NL,Makkum,1350 SM,
,NL,Haren Gn,2740 RV,Merlehof 84,EE,East Nikolai,80378,
,NL,Stiens,8173 CV,Lindseyhof 123,AT,Amstetten,9831,
,AT,Wieselburg,8804,Alexandra-Hartl-Ring 8,AT,Wels,5487,
,AT,Baden,1873,Barbara-Mitterlehner-Gasse 123,EE,South Meelis,74495,
,EE,Lake Irinatown,86538,Laht Mews 133,NL,'s-Graveland,5492 CV,
,EE,Eveshire,98391,Tamara Trafficway 105,NL,Punthorst,7086 LB,
,AT,Dürnstein,5667,Dana-Neumayr-Straße 111,AT,Bad Radkersburg,2617,
,AT,Zistersdorf,7590,Rothstr. 97,AT,Gmunden,5878,
,AT,Althofen,2500,Mark-Rossmann-Ring 140,AT,Retz,6077,
,NL,Schaijk,2940 CD,Juliesingel 112,AT,Neunkirchen,3226,
,AT,Bischofshofen,8418,Stögergasse 56,NL,Broekhuizenvorst,6061 BU,
,EE,Palumouth,97685,Peeter Islands 42,AT,Sankt Valentin,2330,
,AT,Traismauer,9714,Neumayerplatz 30,AT,Ternitz,4294,
,AT,Feldkirchen,2486,Walterplatz 132,EE,North Kristina,78705,
,AT,Waidhofen an der Thaya,2791,Erhartstraße 85,AT,Wolfsberg,8575,
,AT,Rottenmann,4634,Lara-Schön-Weg 67,AT,Klagenfurt,4852,
,AT,Dürnstein,5667,Dana-Neumayr-Straße 111,EE,Kasemaabury,83887,
,NL,Punthorst,2368 YL,Suzepad 34,AT,Dürnstein,1474,
,EE,Port Antsmouth,69810,Raag Stream 119,EE,East Valentinaside,86682,
,EE,South Elena,57329,Jekaterina Island 140,EE,North Tiiuville,20501,
,AT,Mariazell,5458,Richard-Gamsjäger-Weg 134,NL,Markenbinnen,6167 FA,
,AT,Radenthein,7127,Benjamin-Tischler-Platz 73,EE,North Sergeiburgh,56893,
,EE,Sillasteberg,66820,Rein Trail 98,NL,Voorburg,8196 WK,
,NL,Wehl,3890 QA,Martsingel 139,AT,Amstetten,8952,
,NL,Grubbenvorst,1868 RZ,Johannasingel 43,AT,Sankt Pölten,2851,
,EE,Andreiside,45067,Anne Stravenue 82,NL,Vorden,9898 VS,
,AT,Zistersdorf,7590,Rothstr. 97,AT,Traismauer,9714,
,AT,Oberndorf bei Salzburg,5038,Luise-Reiter-Ring 102,NL,Deest,4644 TX,
,AT,Braunau am Inn,3125,Jasper-Heller-Gasse 49,AT,Retz,6077,
,NL,Wieringerwaard,4884 ND,Sennapad 149,AT,Krems an der Donau,6060,
,AT,Frohnleiten,9094,Anita-Trattner-Straße 85,NL,Loënga,5768 LO,
,NL,Wijnjewoude,1022 QH,Keanosingel 76,NL,Haren Gn,2740 RV,
,NL,Renesse,9458 SS,Britthof 19,AT,Traun,9775,
,NL,Laag-Keppel,5912 EL,Emmabaan 11,EE,North Irinaborough,12187,
,EE,North Tiinahaven,82365,Jekaterina Lake 44,NL,Markenbinnen,6167 FA,
,NL,Dreumel,5051 YZ,Stenpad 39,EE,North Kristina,64165,
,AT,Althofen,6456,Pachlergasse 7,AT,Frohnleiten,9094,
,EE,South Jüri,41096,Sarap Crest 87,EE,East Sander,51250,
,AT,Gänserndorf,8049,Nikolai-Scheucher-Ring 93,NL,Laag-Keppel,5912 EL,
,EE,North Romanfurt,31917,Priit Street 91,AT,Judenburg,8262,
,EE,Jevgenifort,84956,Kadri Island 34,AT,Bärnbach,1478,
,EE,Annaview,92404,Nadežda Spring 67,AT,Baden,1873,
,NL,Steenenkamer,7522 PX,Livsteeg 9,AT,Amstetten,9831,
,AT,Ternitz,7599,Blauensteinerweg 102,NL,Kuitaart,8918 NH,
,AT,Waidhofen an der Thaya,5432,Wilfingerring 135,NL,Grubbenvorst,1868 RZ,
,AT,Innsbruck,6940,Ava-Schütz-Gasse 99,AT,Eggenburg,1653,
,NL,Schaijk,2940 CD,Juliesingel 112,EE,Piretbury,76255,
,EE,Annaview,19618,Aino Divide 11,EE,Kisseljovside,33477,
,NL,Nieuw-Weerdinge,1897 GE,Deandreef 26,AT,Kindberg,3707,
,EE,Langtown,76772,Anna Inlet 146,NL,Laag-Keppel,5912 EL,
,AT,Rottenmann,2285,Madeleine-Teufl-Ring 6,AT,Feldkirchen,2486,
,AT,Bad Radkersburg,2617,Wöhrerplatz 23,EE,Viktoriashire,33402,
,NL,Grootschermer,2812 AU,Isisring 85,AT,Baden,2908,
,AT,Leoben,7362,Konstantin-Koller-Ring 94,AT,Neunkirchen,3226,
,AT,Trieben,6473,Frida-Yilmaz-Gasse 127,AT,Gmunden,9449,
,EE,Lake Tõnushire,94797,Aivar Street 42,EE,New Jelena,89190,
,AT,Jennersdorf,4114,Nikola-Schwab-Ring 3,EE,Aderport,41550,
,NL,Wetsens,5380 XN,Zakarialaan 46,NL,Punthorst,7086 LB,
,EE,West Andrei,67560,Jelena Rapid 28,EE,East Valentinaside,86682,
,EE,Sillasteberg,66820,Rein Trail 98,AT,Altheim,2279,
,NL,Hidaard,1008 JC,Jasperhof 106,EE,Enebury,74120,
,EE,Kuuskmouth,18589,Olga Hollow 46,AT,Sankt Pölten,2851,
,AT,Bad Hall,7287,Fritschstraße 10,AT,Gmunden,9449,
,NL,Helvoirt,9135 MC,Beratbaan 11,EE,Jaanusborough,52268,
,NL,Wieringerwaard,4884 ND,Sennapad 149,AT,Köflach,1969,
,NL,Uithoorn,9783 DD,Sebastiaanhof 142,EE,West Mihkelton,89155,
,NL,Udenhout,8151 AR,Milanpad 127,NL,Eindhoven,2501 AW,
,AT,Frohnleiten,9094,Anita-Trattner-Straße 85,AT,Hartberg,4189,
,AT,Waidhofen an der Thaya,5432,Wilfingerring 135,NL,Barendrecht,9916 ZQ,
,AT,Wörgl,1110,Calvin-Mitter-Straße 50,AT,Waidhofen an der Thaya,2791,
,AT,Schrattenthal,5709,Elyas-Pieber-Gasse 121,AT,Gmunden,5878,
,NL,De Zilk,5250 EI,Sennalaan 52,NL,Zeijerveen,5296 CJ,
,NL,Monster,6397 YM,Joepboulevard 18,NL,Echteld,7621 AK,
,AT,Ternitz,7599,Blauensteinerweg 102,AT,Jennersdorf,4114,
,EE,Kisseljovside,33477,Aleksandr Knolls 104,AT,Oberwälz,7370,
,AT,Zistersdorf,8052,Aleksandra-Friedrich-Straße 11,EE,Gontšarovburgh,53738,
,NL,Lathum,1463 YW,Amberhof 92,NL,Voorthuizen,1552 NU,
,NL,Lobith,5348 TT,Samsteeg 87,NL,Echteld,6042 AC,
,AT,Marchtrenk,4437,Hofstätterring 12,AT,Neulengbach,9365,
,EE,Põderberg,78693,Ossipov Road 24,NL,Nieuw-Weerdinge,1897 GE,
,EE,Lake Triin,47768,Aasa Land 144,NL,IJsselham,7370 DH,
,EE,Anneshire,31221,Rosenberg Crossroad 115,NL,Wetsens,5380 XN,
,AT,Dürnstein,6578,Calvin-Kasper-Straße 46,NL,Ewijk,3850 RP,
,AT,Waidhofen an der Thaya,5432,Wilfingerring 135,AT,Mistelbach an der Zaya,1305,
,NL,Punthorst,2368 YL,Suzepad 34,AT,Ternitz,4294,
,EE,West Triin,45898,Nõmmik Views 107,AT,Braunau am Inn,3125,
,AT,Dürnstein,6578,Calvin-Kasper-Straße 46,EE,North Aivarstad,78822,
,EE,Maiefurt,41478,Oras Locks 130,AT,Schrattenthal,5709,
,NL,Voorthuizen,1552 NU,Tiesweg 137,AT,Oberpullendorf,5724,
,AT,Mürzzuschlag,8603,Tiffany-Wimmer-Weg 50,NL,Blesdijke,7031 CH,
,EE,Lake Tõnushire,94797,Aivar Street 42,AT,Gmunden,5878,
,NL,Meterik,9641 EG,Timpad 65,AT,Villach,2107,
,NL,Punthorst,7086 LB,Larastraat 137,EE,Ülleview,82106,
,AT,Schrattenthal,5869,Elisabeth-Rössler-Ring 94,NL,Farmsum,2103 QS,
,EE,Lake Annelistad,34954,Laura Lodge 8,NL,Echteld,6042 AC,
,EE,Kristiinaburgh,43198,Reet Port 145,AT,Schrems,5265,
,NL,Angeren,9800 AU,Daniweg 69,EE,Õunburgh,72780,
,EE,Toomasberg,18879,Anu Trace 90,NL,Steenenkamer,7522 PX,
,AT,Grieskirchen,9040,Alexander-Kopf-Weg 18,NL,Grubbenvorst,1868 RZ,
,AT,Raabs an der Thaya,9317,Scharfstr. 101,EE,North Natalja,19732,
,AT,Grieskirchen,9040,Alexander-Kopf-Weg 18,EE,West Mihkelton,89155,
,NL,Broekhuizenvorst,6061 BU,Milanlaan 109,NL,Makkum,1350 SM,
,NL,Zevenhoven,4578 MH,Jasmijnweg 8,EE,Sillasteberg,66820,
,AT,Ternitz,7599,Blauensteinerweg 102,NL,Jouswier,4694 LZ,
,EE,North Natalja,19732,Lebedev Extensions 76,AT,Stockerau,1207,
,EE,Langtown,76772,Anna Inlet 146,AT,Bad Leonfelden,2034,
,EE,Vladimirville,84750,Maria Stream 106,AT,Frohnleiten,6578,
,AT,Leibnitz,5161,Pendlring 71,NL,'s-Graveland,5492 CV,
,EE,West Mihkelton,89155,Maslov Walk 8,AT,Marchtrenk,4437,
,NL,Echteld,6042 AC,Berendpad 16,AT,Innsbruck,6940,
,AT,Mautern an der Donau,4451,Draxlergasse 17,EE,North Tiiuville,20501,
,NL,Vorden,9898 VS,Kyanboulevard 125,NL,Monster,6397 YM,
,AT,Purkersdorf,1916,Henrik-Reinprecht-Straße 8,NL,Uithoorn,9783 DD,
,EE,North Kristina,78705,Rätsep Mill 49,NL,Mander,9197 HA,
,NL,'s-Graveland,5492 CV,Mikepad 33,NL,Kuitaart,8918 NH,
,AT,Pregarten,5773,Karoline-Horak-Gasse 146,NL,Kerkrade,2575 PB,
,AT,Gmunden,9449,Aignergasse 94,AT,Wörgl,1110,
,AT,Liezen,4309,Lily-Rechberger-Ring 65,NL,Wehl,3890 QA,
,EE,West Sirjetown,55098,Kolk Stream 78,NL,Eindhoven,2501 AW,
,EE,North Kristina,78705,Rätsep Mill 49,AT,Marchtrenk,7718,
,NL,IJsselham,7370 DH,Merelhof 1,NL,Makkum,2114 MG,
,NL,Den Horn,7237 IN,Lotpad 136,NL,Hekelingen,8055 SW,
,EE,Reetbury,64161,Kaasik Field 107,AT,Oberndorf bei Salzburg,5038,
,EE,East Tiiuton,54724,Rand Point 116,AT,Trieben,3252,
,AT,Ferlach,6055,Fernando-Polzer-Platz 77,EE,Tuulikstad,28046,
,NL,Pietersbierum,2476 JN,Emmapad 48,AT,Wolfsberg,8575,
,NL,Achtmaal,7277 QZ,Suzeweg 129,AT,Dürnstein,6578,
,AT,Wieselburg,8804,Alexandra-Hartl-Ring 8,EE,South Elena,57329,
,NL,Slijkenburg,9504 AE,Joëlboulevard 47,EE,Kristiinaburgh,43198,
,EE,North Tiiuville,20501,Reet Club 38,EE,Kisseljovside,33477,
,EE,Gontšarovburgh,53738,Tiina Brooks 18,NL,Uithoorn,9783 DD,
,EE,Lake Raivo,33773,Sutt Route 145,NL,Oldenzijl,4196 EO,
,AT,Radenthein,3684,Stecherstraße 1,NL,Jouswier,4694 LZ,
,NL,Ansen,8813 TF,Stefring 97,AT,Mürzzuschlag,8603,
,NL,Vuren,2498 UD,Aliciahof 116,NL,Meterik,9641 EG,
,AT,Straßburg,8357,Pollakplatz 110,NL,Renesse,9458 SS,
,NL,Zeijerveen,5296 CJ,Mickring 114,NL,Eindhoven,2501 AW,
,AT,Groß-Enzersdorf,5588,Katharina-Stecher-Ring 136,AT,Pregarten,5773,
,EE,Lake Dianastad,99041,Tatiana Viaduct 72,AT,Baden,2908,
,NL,Steenenkamer,7522 PX,Livsteeg 9,AT,Radenthein,7127,
,AT,Mariazell,5458,Richard-Gamsjäger-Weg 134,NL,Bovenkarspel,1203 IS,
,NL,Markenbinnen,6167 FA,Lolastraat 72,AT,Trieben,6473,
,AT,Zistersdorf,7590,Rothstr. 97,NL,Westerbroek,8337 QD,
,AT,Wieselburg,8804,Alexandra-Hartl-Ring 8,AT,Bregenz,4948,
,AT,Rottenmann,4988,Elina-Wurzer-Platz 107,NL,2e Exloërmond,6794 GH,
,NL,Tripscompagnie,8550 YW,Veerlehof 31,EE,Kasemaabury,83887,
,AT,Köflach,1969,Fleischmanngasse 147,AT,Ebenfurth,8571,
,AT,Liezen,4309,Lily-Rechberger-Ring 65,AT,Braunau am Inn,3125,
,AT,Frohnleiten,2476,Reichmannweg 137,AT,Mistelbach an der Zaya,1305,
,AT,Bad Leonfelden,2034,Estelle-Suppan-Platz 79,AT,Rottenmann,4634,
,NL,Oud Zuilen,5579 YN,Lukassteeg 84,NL,Wieringerwaard,4884 ND,
,EE,Lake Raivo,33773,Sutt Route 145,AT,Grieskirchen,9040,
,NL,Wehl,3890 QA,Martsingel 139,EE,South Jaanuschester,93376,
,EE,Annaview,19618,Aino Divide 11,EE,East Alexanderhaven,35134,
,AT,Scheibbs,6984,Höflergasse 51,NL,Simpelveld,2743 UN,
,AT,Gmunden,9449,Aignergasse 94,EE,South Jüri,41096,
,AT,Schrems,5265,Richard-Dorner-Weg 104,AT,Leoben,7362,
,NL,Oppenhuizen,7639 KX,Milahof 74,EE,Lake Peeterfort,56464,
,EE,Kuuskmouth,18589,Olga Hollow 46,NL,Grubbenvorst,1868 RZ,
,AT,Bad Vöslau,8890,Kainzring 49,AT,Krems an der Donau,6060,
,EE,Enebury,74120,Müür Park 111,EE,South Meelis,74495,
,AT,Leibnitz,5161,Pendlring 71,NL,Hoofddorp,5788 LP,
,AT,Zwettl,9873,Jessica-Bachmann-Straße 83,EE,Ülleview,82106,
,EE,Palumouth,97685,Peeter Islands 42,NL,Markenbinnen,6167 FA,
,EE,North Sergeiburgh,56893,Villemson Ranch 78,AT,Wolfsberg,8575,
,EE,North Kristina,78705,Rätsep Mill 49,AT,Trieben,6473,
,AT,Purbach am Neusiedler See,2252,Milo-Jauk-Ring 63,AT,Schrems,5265,
,NL,Bovenkarspel,1203 IS,Annemijnboulevard 149,EE,Viktormouth,49275,
,AT,Mistelbach an der Zaya,1305,Adamweg 34,EE,Sillasteberg,66820,
,NL,Wapse,6493 TX,Aaliyahdreef 118,AT,Bad Leonfelden,2034,
,AT,Dürnstein,1474,Grünwaldplatz 18,EE,Reimanntown,75020,
,AT,Zwettl,9873,Jessica-Bachmann-Straße 83,NL,Beerze,2439 GU,
,EE,Port Viktor,23734,Anu Isle 106,EE,North Marekbury,94678,
,NL,Egmond-Binnen,6400 YE,Gerritring 67,EE,Lake Irinatown,86538,
,NL,Hidaard,1008 JC,Jasperhof 106,AT,Ternitz,7599,
,EE,North Tiiuville,20501,Reet Club 38,AT,Dürnstein,1474,
,EE,East Alexanderhaven,35134,Anne Manor 145,NL,Slijkenburg,9504 AE,
,AT,Bregenz,4948,Haslauerplatz 84,NL,Loënga,5768 LO,
,NL,Tonden,6650 HE,Sophiepad 68,EE,Kuuskmouth,18589,
,AT,Poysdorf,9968,Reichlgasse 149,AT,Leibnitz,5161,
,EE,Piretbury,76255,Laura Corners 45,EE,Triinfurt,51891,
,NL,Monster,6397 YM,Joepboulevard 18,EE,Eveshire,98391,
,AT,Stockerau,1207,Salzmannplatz 32,AT,Zistersdorf,8052,
,AT,Landeck,2308,Fitzstraße 14,NL,Dreischor,3354 WO,
,EE,Port Antsmouth,69810,Raag Stream 119,NL,Markenbinnen,6167 FA,
,AT,Bad Hall,7287,Fritschstraße 10,AT,Wilhelmsburg,9737,
,EE,Eveshire,98391,Tamara Trafficway 105,NL,Wehl,3890 QA,
,NL,Angeren,9800 AU,Daniweg 69,AT,Althofen,6456,
,NL,Deest,4644 TX,Mayastraat 90,AT,Sankt Valentin,3787,
,NL,Broekhuizenvorst,6061 BU,Milanlaan 109,EE,Annaview,19618,
,NL,Udenhout,8151 AR,Milanpad 127,NL,Echteld,6042 AC,
,AT,Rottenmann,4634,Lara-Schön-Weg 67,NL,Punthorst,2368 YL,
,EE,Lake Tõnushire,94797,Aivar Street 42,EE,Port Antsmouth,69810,
,EE,Viksburgh,72061,Viktor Points 24,AT,Frohnleiten,6578,
,AT,Gmunden,5878,Winterstr. 10,NL,Laag-Keppel,5912 EL,
,AT,Schrattenthal,5869,Elisabeth-Rössler-Ring 94,NL,Hekelingen,8055 SW,
,EE,Malleton,24650,Raadik Junctions 95,AT,Rottenmann,4634,
,NL,Laag-Keppel,5912 EL,Emmabaan 11,NL,Eindhoven,2501 AW,
,AT,Herzogenburg,9244,Josef-Haderer-Ring 12,EE,North Romanfurt,31917,
,EE,Elenaville,91331,Maksim Crest 99,AT,Wilhelmsburg,9737,
,NL,Kuitaart,8918 NH,Bastiaanpad 40,AT,Grieskirchen,9040,
,EE,Andreiside,45067,Anne Stravenue 82,EE,West Andrei,67560,
,EE,New Roman,13028,Katrin Spur 147,NL,Punthorst,7086 LB,
,NL,Hidaard,1008 JC,Jasperhof 106,EE,Ülleview,82106,
,NL,Wehl,3890 QA,Martsingel 139,AT,Rottenmann,6888,
,AT,Mariazell,5458,Richard-Gamsjäger-Weg 134,AT,Traismauer,9714,
,AT,Wels,5487,Laureen-Brenner-Ring 121,EE,New Jelena,89190,
,EE,Kuuskmouth,18589,Olga Hollow 46,EE,Jevgenifort,84956,
,NL,Egmond-Binnen,6400 YE,Gerritring 67,NL,Hoofddorp,5788 LP,
,NL,Voorthuizen,1552 NU,Tiesweg 137,NL,IJsselham,7370 DH,
,EE,West Triin,45898,Nõmmik Views 107,AT,Bad Vöslau,8890,
,AT,Baden,2908,Danilo-Mitterlehner-Gasse 113,EE,Tõnuland,95547,
,NL,Barendrecht,9916 ZQ,Jeltesingel 32,AT,Bregenz,4948,
,EE,Kozlovborough,21696,Paju Court 56,AT,Mürzzuschlag,8603,
,AT,Retz,6077,Steinlechnerring 79,AT,Judenburg,8262,
,AT,Retz,6077,Steinlechnerring 79,NL,Uithoorn,9783 DD,
,EE,Kisseljovside,33477,Aleksandr Knolls 104,AT,Feldkirchen,2486,
,EE,South Meelis,74495,Aleksandr Pines 41,NL,Tonden,6650 HE,
,NL,Venhorst,1059 KC,Mikastraat 133,EE,Elenaville,91331,
,AT,Scheibbs,6984,Höflergasse 51,NL,Beutenaken,7993 AP,
,NL,Westerhoven,4010 ND,Sebastiaanhof 113,AT,Bischofshofen,8418,
,EE,Sergejevmouth,87483,Toots Ridges 101,AT,Dürnstein,6578,
,EE,North Irinaborough,12187,Priit Mount 91,EE,North Tiiuville,20501,
,NL,Echteld,7621 AK,Bilalring 122,NL,Punthorst,2368 YL,
,EE,East Juri,74582,Pavel Radial 80,EE,Reimanntown,75020,
,NL,Deest,4644 TX,Mayastraat 90,EE,East Anneburgh,58498,
,EE,New Roman,13028,Katrin Spur 147,EE,Annaview,92404,
,AT,Klagenfurt,4852,Klausring 2,AT,Stadtschlaining,3202,
,EE,Elenafort,10405,Sergey Forge 83,AT,Schrems,6626,
,AT,Stadtschlaining,3202,Joshua-Holzmann-Ring 35,AT,Judenburg,8262,
,AT,Althofen,6456,Pachlergasse 7,NL,Voorburg,8196 WK,
,NL,Haren Gn,2740 RV,Merlehof 84,NL,Makkum,2114 MG,
,EE,Gontšarovburgh,53738,Tiina Brooks 18,NL,Kuitaart,8918 NH,
,AT,Baden,2908,Danilo-Mitterlehner-Gasse 113,AT,Bad Radkersburg,2617,
,NL,Tienray,9511 QK,Evelienpad 133,NL,Blesdijke,7031 CH,
,AT,Wiener Neustadt,1976,Kernring 18,NL,Wehl,3890 QA,
,NL,Steenenkamer,7522 PX,Livsteeg 9,EE,Aderport,41550,
,NL,Monster,6397 YM,Joepboulevard 18,EE,North Sergeiburgh,56893,
,AT,Leibnitz,7672,Doblerplatz 23,NL,Beerze,2439 GU,
,AT,Neulengbach,1341,Haasstr. 75,NL,Barendrecht,9916 ZQ,
,NL,Grootschermer,2812 AU,Isisring 85,NL,Deest,4644 TX,
,AT,Ternitz,4294,Justin-Gross-Straße 126,EE,Port Viktor,23734,
,AT,Mariazell,5458,Richard-Gamsjäger-Weg 134,NL,Voorthuizen,1552 NU,
,AT,Freistadt,1267,Buchbergerring 81,AT,Drosendorf-Zissersdorf 1,2067,
,AT,Dürnstein,1474,Grünwaldplatz 18,AT,Bregenz,4948,
,AT,Marchtrenk,4437,Hofstätterring 12,AT,Raabs an der Thaya,5206,
,NL,Nieuwe Pekela,2569 KW,Rikdreef 97,AT,Mattersburg,3850,
,EE,Lake Annelistad,34954,Laura Lodge 8,EE,Pulkmouth,57994,
,NL,Vorden,9898 VS,Kyanboulevard 125,EE,Reetbury,64161,
,EE,Maiefurt,41478,Oras Locks 130,NL,Wetsens,5380 XN,
,EE,North Tiinahaven,82365,Jekaterina Lake 44,EE,Pulkmouth,57994,
,AT,Baden,1873,Barbara-Mitterlehner-Gasse 123,EE,North Jekaterinastad,97935,
,AT,Braunau am Inn,3125,Jasper-Heller-Gasse 49,AT,Enns,2160,
,EE,Port Alekseiland,37382,Aino Plains 117,AT,Feldkirchen,2486,
,EE,Aderport,41550,Nikiforov Mountains 28,AT,Schärding,2475,
,EE,Elenafort,10405,Sergey Forge 83,EE,Lake Raivo,33773,
,NL,Oppenhuizen,7639 KX,Milahof 74,AT,Bad Hall,9626,
,EE,Anneshire,31221,Rosenberg Crossroad 115,EE,North Irinaborough,12187,
,AT,Mank,3433,Voglring 145,EE,West Andrei,67560,
,NL,Echteld,6042 AC,Berendpad 16,AT,Rottenmann,4988,
,EE,Vainmouth,72093,Aino Cape 70,EE,East Alexanderhaven,35134,
,NL,Oldenzijl,4196 EO,Felixstraat 76,AT,Frohnleiten,9094,
,AT,Oberpullendorf,5724,Weissplatz 30,AT,Innsbruck,2915,
,AT,Gmunden,3043,Marie-Jung-Ring 148,EE,North Aivarstad,78822,
,NL,'s-Graveland,5492 CV,Mikepad 33,AT,Villach,2107,
,AT,Zistersdorf,8052,Aleksandra-Friedrich-Straße 11,EE,East Juri,74582,
,NL,Egmond-Binnen,6400 YE,Gerritring 67,AT,Neunkirchen,3226,
,NL,Tripscompagnie,8550 YW,Veerlehof 31,AT,Hainburg an der Donau,5910,
,EE,North Tiinahaven,82365,Jekaterina Lake 44,AT,Gänserndorf,8049,
,AT,Marchtrenk,7718,Claire-Posch-Ring 75,AT,Leoben,7362,
,EE,South Jaanuschester,93376,Ossipov Crossroad 139,AT,Gmunden,5878,
,AT,Gmunden,5878,Winterstr. 10,EE,South Jüri,41096,
,NL,Boerakker,1371 WB,Tijnring 65,EE,New Jelena,89190,
,AT,Mattersburg,3850,Jasmine-Puntigam-Platz 74,AT,Gmunden,5878,
,EE,Maiefurt,41478,Oras Locks 130,AT,Dürnstein,5667,
,AT,Amstetten,9831,Reischlstraße 16,AT,Krems an der Donau,6060,
,AT,Wiener Neustadt,1976,Kernring 18,AT,Oberwälz,7370,
,AT,Stockerau,1207,Salzmannplatz 32,EE,New Roman,13028,
,EE,Lake Triin,47768,Aasa Land 144,NL,Kuitaart,8918 NH,
,EE,New Roman,13028,Katrin Spur 147,AT,Wolfsberg,8575,
,AT,Enns,6783,Reischlstr. 110,EE,North Kristjan,19198,
,NL,Voorburg,8196 WK,Juulsteeg 36,AT,Purbach am Neusiedler See,2252,
,EE,Kisseljovside,33477,Aleksandr Knolls 104,EE,Andreiside,45067,
,AT,Bad Hall,7287,Fritschstraße 10,NL,Eindhoven,2501 AW,
,NL,Stiens,8173 CV,Lindseyhof 123,EE,Lake Irinatown,86538,
,AT,Ybbs an der Donau,8336,Helmstr. 61,EE,West Sirjetown,55098,
,NL,Haren Gn,2740 RV,Merlehof 84,EE,Maiefurt,41478,
,NL,Monster,6397 YM,Joepboulevard 18,EE,North Tiinahaven,82365,
,EE,Lake Irinatown,86538,Laht Mews 133,EE,East Sergey,30532,
,AT,Hainburg an der Donau,5910,Stefanie-Suppan-Ring 31,EE,South Jüri,41096,
,NL,Vorden,9898 VS,Kyanboulevard 125,NL,Wetsens,5380 XN,
,AT,Wilhelmsburg,9737,Aichingerweg 17,AT,Neunkirchen,3226,
,AT,Innsbruck,2915,Leopold-Krainer-Platz 29,AT,Schrattenthal,5709,
,AT,Ebenfurth,8571,Levi-Schweiger-Weg 114,AT,Schrattenthal,5869,
,EE,Urmasland,21111,Anna Fork 68,AT,Schrattenthal,5869,
,NL,Uithoorn,9783 DD,Sebastiaanhof 142,EE,East Sergey,30532,
,NL,Tripscompagnie,8550 YW,Veerlehof 31,AT,Stadtschlaining,9765,
,AT,Bad Radkersburg,2617,Wöhrerplatz 23,AT,Mariazell,5458,
,EE,New Viktoria,59270,Marek Fords 19,AT,Rottenmann,6888,
,AT,Hainfeld,7929,Zettlplatz 114,NL,Grootschermer,2812 AU,
,AT,Mank,3433,Voglring 145,AT,Groß-Enzersdorf,5588,
,NL,Nieuwe Wetering,7551 DV,Fatimasteeg 138,EE,West Triin,45898,
,AT,Marchtrenk,4437,Hofstätterring 12,AT,Frohnleiten,1017,
,AT,Feldkirchen,2486,Walterplatz 132,AT,Drosendorf-Zissersdorf 1,2067,
,EE,New Viktoria,59270,Marek Fords 19,NL,Angeren,9800 AU,
,AT,Mautern an der Donau,9776,Isabella-Trinkl-Platz 135,EE,Jaanusburgh,44952,
,AT,Ferlach,6055,Fernando-Polzer-Platz 77,EE,North Jekaterinastad,97935,
,AT,Marchtrenk,7718,Claire-Posch-Ring 75,EE,Port Antsmouth,69810,
,EE,South Jaanuschester,93376,Ossipov Crossroad 139,NL,Voorburg,8196 WK,
,AT,Bregenz,4948,Haslauerplatz 84,EE,Põderberg,78693,
,AT,Drosendorf-Zissersdorf 1,2067,Maurerstraße 58,AT,Trieben,6473,
,AT,Stockerau,1207,Salzmannplatz 32,NL,Voorburg,8196 WK,
,AT,Sankt Valentin,2330,Kalteneggerring 37,AT,Hainfeld,7929,
,NL,Vorden,9898 VS,Kyanboulevard 125,AT,Bad Radkersburg,2617,
,NL,Oldenzijl,4196 EO,Felixstraat 76,EE,South Kristi,80489,
,NL,Beerze,2439 GU,Pepijnsteeg 115,NL,Zevenhoven,4578 MH,
,NL,Rijswijk (GLD),4124 IT,Charlottebaan 71,NL,Kuitaart,8918 NH,
,EE,South Elena,57329,Jekaterina Island 140,NL,Hoofddorp,5788 LP,
,AT,Bregenz,4948,Haslauerplatz 84,AT,Landeck,2308,
,EE,North Kristjan,19198,Tiina Fork 142,NL,Renesse,9458 SS,
,NL,Blokzijl,8697 EV,Madeliefstraat 141,NL,Jouswier,4694 LZ,
,NL,Sint Jansklooster,9210 KF,Noorweg 85,AT,Dürnstein,5667,
,EE,Jevgenifort,84956,Kadri Island 34,EE,Mägichester,53090,
,EE,West Sirjetown,55098,Kolk Stream 78,AT,Köflach,1969,
,AT,Mautern an der Donau,9776,Isabella-Trinkl-Platz 135,EE,North Tiiuville,20501,
,EE,Viktormouth,49275,Kiil Parks 137,AT,Zistersdorf,7590,
,AT,Althofen,6456,Pachlergasse 7,AT,Rottenmann,6888,
,AT,Trieben,6473,Frida-Yilmaz-Gasse 127,AT,Schrattenthal,9535,
,EE,Palumouth,97685,Peeter Islands 42,AT,Radenthein,3684,
,EE,South Jaanuschester,93376,Ossipov Crossroad 139,EE,Kasemaabury,83887,
,NL,Steenenkamer,7522 PX,Livsteeg 9,AT,Mistelbach an der Zaya,1305,
,AT,Mistelbach an der Zaya,1305,Adamweg 34,NL,Oud Zuilen,5579 YN,
,AT,Altheim,2279,Manuel-Schwendinger-Weg 5,AT,Enns,6783,
,NL,Punthorst,7086 LB,Larastraat 137,EE,Lake Tõnushire,94797,
,EE,New Viktoria,59270,Marek Fords 19,AT,Stadtschlaining,3202,
,AT,Poysdorf,9968,Reichlgasse 149,NL,Vorden,9898 VS,
,EE,North Irinaborough,12187,Priit Mount 91,AT,Frohnleiten,1017,
,EE,East Siimland,23309,Kondratjev Pike 122,EE,North Tiiuville,20501,
,AT,Groß-Enzersdorf,5588,Katharina-Stecher-Ring 136,EE,Lake Dianastad,99041,
,NL,Punthorst,2368 YL,Suzepad 34,EE,New Valentina,32408,
,NL,Oud Zuilen,5579 YN,Lukassteeg 84,AT,Sankt Valentin,2330,
,NL,Farmsum,2103 QS,Esmeeweg 105,AT,Rottenmann,2285,
,EE,Annaview,19618,Aino Divide 11,AT,Herzogenburg,9244,
,AT,Neulengbach,9365,Florentina-Schweitzer-Gasse 39,EE,Viksburgh,72061,
,AT,Pregarten,5773,Karoline-Horak-Gasse 146,NL,Voorburg,8196 WK,
,NL,Krewerd,4410 NO,Simonring 120,EE,Reimanntown,75020,
,AT,Hartberg,4189,Arda-Haindl-Ring 86,NL,Nieuw-Weerdinge,1897 GE,
,AT,Ferlach,6055,Fernando-Polzer-Platz 77,AT,Dürnstein,5667,
,NL,Den Horn,7237 IN,Lotpad 136,NL,Markenbinnen,6167 FA,
,NL,Meterik,9641 EG,Timpad 65,EE,New Jelena,89190,
,EE,Reimanntown,75020,Mäesalu Locks 135,AT,Ybbs an der Donau,8336,
,NL,Krewerd,4410 NO,Simonring 120,NL,Angeren,9800 AU,
,AT,Traismauer,9714,Neumayerplatz 30,AT,Schwechat,3793,
,NL,Monster,6397 YM,Joepboulevard 18,AT,Mariazell,5458,
,AT,Liezen,4309,Lily-Rechberger-Ring 65,EE,Kasemaabury,83887,
,AT,Leoben,7362,Konstantin-Koller-Ring 94,AT,Grieskirchen,9040,
,AT,Dürnstein,5667,Dana-Neumayr-Straße 111,NL,Grootschermer,2812 AU,
,NL,Farmsum,2103 QS,Esmeeweg 105,NL,Ansen,8813 TF,
,NL,Beerze,2439 GU,Pepijnsteeg 115,AT,Stadtschlaining,3202,
,EE,South Kristi,80489,Galina Villages 104,NL,Steenenkamer,7522 PX,
,NL,Hidaard,1008 JC,Jasperhof 106,NL,Eindhoven,2501 AW,
,AT,Rottenmann,4988,Elina-Wurzer-Platz 107,NL,Westerhoven,4010 ND,
,NL,Nieuwe Wetering,7551 DV,Fatimasteeg 138,AT,Hartberg,4189,
,EE,Sergejevmouth,87483,Toots Ridges 101,AT,Oberwälz,7370,
,EE,Annaview,19618,Aino Divide 11,AT,Sankt Valentin,3787,
,AT,Wörgl,1110,Calvin-Mitter-Straße 50,EE,Lake Raivo,33773,
,AT,Ternitz,7599,Blauensteinerweg 102,EE,Alexandermouth,54606,
,AT,Gmunden,5878,Winterstr. 10,NL,Bovenkarspel,1203 IS,
,AT,Trieben,3252,Melisa-Werner-Straße 111,EE,North Kristina,64165,
,AT,Waidhofen an der Thaya,2791,Erhartstraße 85,NL,Makkum,1350 SM,
,AT,Amstetten,9831,Reischlstraße 16,AT,Baden,1873,
,NL,Barendrecht,9916 ZQ,Jeltesingel 32,NL,Schaijk,2940 CD,
,AT,Hartberg,4189,Arda-Haindl-Ring 86,AT,Schärding,6152,
,AT,Klagenfurt,4852,Klausring 2,NL,Hidaard,1008 JC,
,AT,Mank,1500,Handlstr. 98,EE,North Romanfurt,31917,
,NL,'s-Graveland,5492 CV,Mikepad 33,AT,Mautern an der Donau,4451,
,AT,Liezen,4309,Lily-Rechberger-Ring 65,EE,Lake Dianastad,99041,
,EE,West Triin,45898,Nõmmik Views 107,AT,Landeck,2308,
,NL,Zijdewind,2212 BB,Aydenstraat 36,NL,Wapse,6493 TX,
,EE,New Viktoria,59270,Marek Fords 19,EE,Elenaville,91331,
,EE,Gontšarovburgh,53738,Tiina Brooks 18,NL,'s-Graveland,5492 CV,
,NL,Dreumel,5051 YZ,Stenpad 39,NL,Oppenhuizen,7639 KX,
